{"type": "FeatureCollection", "features": [ {"type": "Feature", "properties": {"norad_id": 57401, "name": "TIANMU-1 09", "group": "weather", "lat": 19.097584528868076, "lon": -144.98292241662216, "alt_km": 480.3196899379136, "timestamp": "2025-12-09T05:43:20.370408+00:00", "meta": {"OBJECT_NAME": "TIANMU-1 09", "OBJECT_ID": "2023-101C", "EPOCH": "2025-12-08T19:35:31.520256", "MEAN_MOTION": 15.27996216, "ECCENTRICITY": 0.0006824, "INCLINATION": 97.2822, "RA_OF_ASC_NODE": 32.067, "ARG_OF_PERICENTER": 94.2757, "MEAN_ANOMALY": 265.9263, "EPHEMERIS_TYPE": 0, "CLASSIFICATION_TYPE": "U", "NORAD_CAT_ID": 57401, "ELEMENT_SET_NO": 999, "REV_AT_EPOCH": 13255, "BSTAR": 0.00042321, "MEAN_MOTION_DOT": 0.000115, "MEAN_MOTION_DDOT": 0}, "tle": {"line1": "1 57401U 23101C   25342.81633704  .00011500  00000+0  42321-3 0  9993", "line2": "2 57401  97.2822  32.0670 0006824  94.2757 265.9263 15.27996216132558"}}, "geometry": {"type": "Point", "coordinates": [-144.98292241662216, 19.097584528868076]}}, {"type": "Feature", "properties": {"norad_id": 57402, "name": "TIANMU-1 10", "group": "weather", "lat": -27.362800390457636, "lon": 37.12427311761374, "alt_km": 490.6518246745154, "timestamp": "2025-12-09T05:43:20.370424+00:00", "meta": {"OBJECT_NAME": "TIANMU-1 10", "OBJECT_ID": "2023-101D", "EPOCH": "2025-12-08T20:24:45.811872", "MEAN_MOTION": 15.27987929, "ECCENTRICITY": 0.0008558, "INCLINATION": 97.2902, "RA_OF_ASC_NODE": 32.946, "ARG_OF_PERICENTER": 94.4677, "MEAN_ANOMALY": 265.754, "EPHEMERIS_TYPE": 0, "CLASSIFICATION_TYPE": "U", "NORAD_CAT_ID": 57402, "ELEMENT_SET_NO": 999, "REV_AT_EPOCH": 13255, "BSTAR": 0.00042443, "MEAN_MOTION_DOT": 0.00011535, "MEAN_MOTION_DDOT": 0}, "tle": {"line1": "1 57402U 23101D   25342.85053023  .00011535  00000+0  42443-3 0  9991", "line2": "2 57402  97.2902  32.9460 0008558  94.4677 265.7540 15.27987929132550"}}, "geometry": {"type": "Point", "coordinates": [37.12427311761374, -27.362800390457636]}}, {"type": "Feature", "properties": {"norad_id": 57490, "name": "FENGYUN 3F", "group": "weather", "lat": 26.55205541670459, "lon": -124.01889180065542, "alt_km": 824.4359957770957, "timestamp": "2025-12-09T05:43:20.370441+00:00", "meta": {"OBJECT_NAME": "FENGYUN 3F", "OBJECT_ID": "2023-111A", "EPOCH": "2025-12-08T20:32:52.814112", "MEAN_MOTION": 14.19892186, "ECCENTRICITY": 6.61e-05, "INCLINATION": 98.7088, "RA_OF_ASC_NODE": 51.2122, "ARG_OF_PERICENTER": 94.5606, "MEAN_ANOMALY": 265.5646, "EPHEMERIS_TYPE": 0, "CLASSIFICATION_TYPE": "U", "NORAD_CAT_ID": 57490, "ELEMENT_SET_NO": 999, "REV_AT_EPOCH": 12185, "BSTAR": 0.00011202, "MEAN_MOTION_DOT": 1.94e-06, "MEAN_MOTION_DDOT": 0}, "tle": {"line1": "1 57490U 23111A   25342.85616683  .00000194  00000+0  11202-3 0  9994", "line2": "2 57490  98.7088  51.2122 0000661  94.5606 265.5646 14.19892186121853"}}, "geometry": {"type": "Point", "coordinates": [-124.01889180065542, 26.55205541670459]}}, {"type": "Feature", "properties": {"norad_id": 58584, "name": "ARKTIKA-M 2", "group": "weather", "lat": 41.04461803297616, "lon": -30.82093305898655, "alt_km": 21136.56646248649, "timestamp": "2025-12-09T05:43:20.370460+00:00", "meta": {"OBJECT_NAME": "ARKTIKA-M 2", "OBJECT_ID": "2023-198A", "EPOCH": "2025-12-07T20:14:37.201632", "MEAN_MOTION": 2.00604572, "ECCENTRICITY": 0.68645726, "INCLINATION": 63.2245, "RA_OF_ASC_NODE": 175.4245, "ARG_OF_PERICENTER": 268.1228, "MEAN_ANOMALY": 18.8285, "EPHEMERIS_TYPE": 0, "CLASSIFICATION_TYPE": "U", "NORAD_CAT_ID": 58584, "ELEMENT_SET_NO": 999, "REV_AT_EPOCH": 1448, "BSTAR": 0, "MEAN_MOTION_DOT": 1.69e-06, "MEAN_MOTION_DDOT": 0}, "tle": {"line1": "1 58584U 23198A   25341.84348613  .00000169  00000+0  00000+0 0  9999", "line2": "2 58584  63.2245 175.4245 6864572 268.1228  18.8285  2.00604572 14484"}}, "geometry": {"type": "Point", "coordinates": [-30.82093305898655, 41.04461803297616]}}, {"type": "Feature", "properties": {"norad_id": 58645, "name": "TIANMU-1 11", "group": "weather", "lat": -15.264776291041153, "lon": -179.09853927616376, "alt_km": 500.6300359956467, "timestamp": "2025-12-09T05:43:20.370478+00:00", "meta": {"OBJECT_NAME": "TIANMU-1 11", "OBJECT_ID": "2023-205A", "EPOCH": "2025-12-08T20:59:29.501664", "MEAN_MOTION": 15.24528045, "ECCENTRICITY": 0.0008252, "INCLINATION": 97.3606, "RA_OF_ASC_NODE": 2.5658, "ARG_OF_PERICENTER": 326.0405, "MEAN_ANOMALY": 34.0304, "EPHEMERIS_TYPE": 0, "CLASSIFICATION_TYPE": "U", "NORAD_CAT_ID": 58645, "ELEMENT_SET_NO": 999, "REV_AT_EPOCH": 10850, "BSTAR": 0.00040588, "MEAN_MOTION_DOT": 9.929e-05, "MEAN_MOTION_DDOT": 0}, "tle": {"line1": "1 58645U 23205A   25342.87464701  .00009929  00000+0  40588-3 0  9999", "line2": "2 58645  97.3606   2.5658 0008252 326.0405  34.0304 15.24528045108508"}}, "geometry": {"type": "Point", "coordinates": [-179.09853927616376, -15.264776291041153]}}, {"type": "Feature", "properties": {"norad_id": 58646, "name": "TIANMU-1 12", "group": "weather", "lat": 48.50205068749312, "lon": -5.671077852947587, "alt_km": 489.075930504604, "timestamp": "2025-12-09T05:43:20.370498+00:00", "meta": {"OBJECT_NAME": "TIANMU-1 12", "OBJECT_ID": "2023-205B", "EPOCH": "2025-12-08T16:54:17.464320", "MEAN_MOTION": 15.2440473, "ECCENTRICITY": 0.0006112, "INCLINATION": 97.3594, "RA_OF_ASC_NODE": 2.2053, "ARG_OF_PERICENTER": 309.5629, "MEAN_ANOMALY": 50.5068, "EPHEMERIS_TYPE": 0, "CLASSIFICATION_TYPE": "U", "NORAD_CAT_ID": 58646, "ELEMENT_SET_NO": 999, "REV_AT_EPOCH": 10846, "BSTAR": 0.00036097, "MEAN_MOTION_DOT": 8.785e-05, "MEAN_MOTION_DDOT": 0}, "tle": {"line1": "1 58646U 23205B   25342.70436880  .00008785  00000+0  36097-3 0  9998", "line2": "2 58646  97.3594   2.2053 0006112 309.5629  50.5068 15.24404730108467"}}, "geometry": {"type": "Point", "coordinates": [-5.671077852947587, 48.50205068749312]}}, {"type": "Feature", "properties": {"norad_id": 58647, "name": "TIANMU-1 13", "group": "weather", "lat": -44.07300410804394, "lon": 175.73814095831975, "alt_km": 497.02957248324765, "timestamp": "2025-12-09T05:43:20.370514+00:00", "meta": {"OBJECT_NAME": "TIANMU-1 13", "OBJECT_ID": "2023-205C", "EPOCH": "2025-12-08T19:17:17.127744", "MEAN_MOTION": 15.24450002, "ECCENTRICITY": 0.000608, "INCLINATION": 97.3622, "RA_OF_ASC_NODE": 2.5021, "ARG_OF_PERICENTER": 285.2602, "MEAN_ANOMALY": 74.7963, "EPHEMERIS_TYPE": 0, "CLASSIFICATION_TYPE": "U", "NORAD_CAT_ID": 58647, "ELEMENT_SET_NO": 999, "REV_AT_EPOCH": 10847, "BSTAR": 0.00041201, "MEAN_MOTION_DOT": 0.00010053, "MEAN_MOTION_DDOT": 0}, "tle": {"line1": "1 58647U 23205C   25342.80367046  .00010053  00000+0  41201-3 0  9991", "line2": "2 58647  97.3622   2.5021 0006080 285.2602  74.7963 15.24450002108479"}}, "geometry": {"type": "Point", "coordinates": [175.73814095831975, -44.07300410804394]}}, {"type": "Feature", "properties": {"norad_id": 58648, "name": "TIANMU-1 14", "group": "weather", "lat": -43.846563031926934, "lon": 9.408632657240332, "alt_km": 494.954186835158, "timestamp": "2025-12-09T05:43:20.370531+00:00", "meta": {"OBJECT_NAME": "TIANMU-1 14", "OBJECT_ID": "2023-205D", "EPOCH": "2025-12-08T20:27:50.383872", "MEAN_MOTION": 15.24435312, "ECCENTRICITY": 0.0006941, "INCLINATION": 97.3554, "RA_OF_ASC_NODE": 1.9025, "ARG_OF_PERICENTER": 290.1487, "MEAN_ANOMALY": 69.9004, "EPHEMERIS_TYPE": 0, "CLASSIFICATION_TYPE": "U", "NORAD_CAT_ID": 58648, "ELEMENT_SET_NO": 999, "REV_AT_EPOCH": 10848, "BSTAR": 0.00040114, "MEAN_MOTION_DOT": 9.782e-05, "MEAN_MOTION_DDOT": 0}, "tle": {"line1": "1 58648U 23205D   25342.85266648  .00009782  00000+0  40114-3 0  9992", "line2": "2 58648  97.3554   1.9025 0006941 290.1487  69.9004 15.24435312108483"}}, "geometry": {"type": "Point", "coordinates": [9.408632657240332, -43.846563031926934]}}, {"type": "Feature", "properties": {"norad_id": 58660, "name": "TIANMU-1 19", "group": "weather", "lat": 11.048141947237328, "lon": -84.25522666665553, "alt_km": 484.5907111121096, "timestamp": "2025-12-09T05:43:20.370547+00:00", "meta": {"OBJECT_NAME": "TIANMU-1 19", "OBJECT_ID": "2023-208A", "EPOCH": "2025-12-08T21:07:33.235392", "MEAN_MOTION": 15.27740206, "ECCENTRICITY": 0.0004051, "INCLINATION": 97.4391, "RA_OF_ASC_NODE": 93.9255, "ARG_OF_PERICENTER": 270.4041, "MEAN_ANOMALY": 89.6734, "EPHEMERIS_TYPE": 0, "CLASSIFICATION_TYPE": "U", "NORAD_CAT_ID": 58660, "ELEMENT_SET_NO": 999, "REV_AT_EPOCH": 10823, "BSTAR": 0.00048843, "MEAN_MOTION_DOT": 0.00013175, "MEAN_MOTION_DDOT": 0}, "tle": {"line1": "1 58660U 23208A   25342.88024578  .00013175  00000+0  48843-3 0  9994", "line2": "2 58660  97.4391  93.9255 0004051 270.4041  89.6734 15.27740206108236"}}, "geometry": {"type": "Point", "coordinates": [-84.25522666665553, 11.048141947237328]}}, {"type": "Feature", "properties": {"norad_id": 58661, "name": "TIANMU-1 20", "group": "weather", "lat": -47.5311522225777, "lon": -93.4730457809815, "alt_km": 483.2330613147833, "timestamp": "2025-12-09T05:43:20.370565+00:00", "meta": {"OBJECT_NAME": "TIANMU-1 20", "OBJECT_ID": "2023-208B", "EPOCH": "2025-12-08T19:18:11.632320", "MEAN_MOTION": 15.28929778, "ECCENTRICITY": 0.0006348, "INCLINATION": 97.4329, "RA_OF_ASC_NODE": 94.2934, "ARG_OF_PERICENTER": 282.553, "MEAN_ANOMALY": 77.4999, "EPHEMERIS_TYPE": 0, "CLASSIFICATION_TYPE": "U", "NORAD_CAT_ID": 58661, "ELEMENT_SET_NO": 999, "REV_AT_EPOCH": 10829, "BSTAR": 0.00047211, "MEAN_MOTION_DOT": 0.00013208, "MEAN_MOTION_DDOT": 0}, "tle": {"line1": "1 58661U 23208B   25342.80430130  .00013208  00000+0  47211-3 0  9997", "line2": "2 58661  97.4329  94.2934 0006348 282.5530  77.4999 15.28929778108292"}}, "geometry": {"type": "Point", "coordinates": [-93.4730457809815, -47.5311522225777]}}]}